LANDSAT 4               
1 13367U 82072A   02348.71249507  .00003138  00000-0  27071-3 0  3888
2 13367  98.2190  81.9247 0009046 330.0411  30.0281 14.98063575 87998
TDRS 1                  
1 13969U 83026B   02348.33006757 -.00000287  00000-0  10000-3 0  5689
2 13969  11.4509  24.9113 0003534 199.8735 287.9006  1.00265968 45162
LANDSAT 5               
1 14780U 84021A   02349.21577322  .00000995  00000-0  23140-3 0  4803
2 14780  98.2752  49.5797 0001757 270.0667  90.0383 14.57055270999381
ERBS                    
1 15354U 84108B   02349.06822539  .00002626  00000-0  16614-3 0  3386
2 15354  56.9891 222.4774 0040626  51.6714 308.8011 15.11806319992127
TDRS 3                  
1 19548U 88091B   02349.06113890 -.00000169  00000-0  10000-3 0  9215
2 19548   7.0471  59.3267 0003016 200.6046 290.1609  1.00266273 39318
TDRS 4                  
1 19883U 89021B   02347.62328028 -.00000251  00000-0  10000-3 0  1711
2 19883   4.9439  75.0835 0003627 187.5637   2.9493  1.00278014222874
HST                     
1 20580U 90037B   02349.37744979  .00004705  00000-0  38099-3 0  2577
2 20580  28.4665 101.4763 0003602 302.4126 115.4524 14.97478121492853
TDRS 5                  
1 21639U 91054B   02347.42090439  .00000098  00000-0  10000-3 0  9651
2 21639   4.1101  80.5307 0002491 163.3042 175.2922  1.00274553 41615
UARS                    
1 21701U 91063B   02349.43853446  .00001557  00000-0  13470-3 0  7764
2 21701  56.9810 295.6368 0006937 106.6685 253.5120 15.02682646615929
TOPEX/POSEIDON          
1 22076U 92052A   02348.39011290 -.00000038  00000-0  10000-3 0  5539
2 22076  66.0438 327.4909 0008105 266.0651  93.9382 12.80930781483828
TDRS 6                  
1 22314U 93003B   02348.88847223 -.00000260  00000-0  10000-3 0  4321
2 22314   3.3633  84.7654 0004688 336.6626 294.9795  1.00270597 36357
TDRS 7                  
1 23613U 95035B   02348.22732508  .00000111  00000-0  10000-3 0  2577
2 23613   5.6441  70.1874 0003039 203.7278  79.4759  1.00278800 27150
XTE                     
1 23757U 95074A   02348.35493687  .00008737  00000-0  40501-3 0  2059
2 23757  22.9845 333.0130 0009461 239.4927 120.4626 15.17290292382670
TRMM                    
1 25063U 97074A   02348.07909714  .00029146  00000-0  40262-3 0  9031
2 25063  34.9723 221.2181 0001047 254.2752 105.7873 15.56140029289599
ETS 7                   
1 25064U 97074B   02346.95532006  .00009076  00000-0  47237-3 0  1360
2 25064  34.9620 214.9516 0003870  20.0034 340.0826 15.15296703278423
ISS (ZARYA)             
1 25544U 98067A   02349.51999859  .00034884  00000-0  46879-3 0  4767
2 25544  51.6347 222.6652 0003599 271.8538 168.9435 15.57554681232250
LANDSAT 7               
1 25682U 99020A   02349.46777784  .00000611  00000-0  14561-3 0  6446
2 25682  98.2270  54.0714 0001112 115.3135 244.8179 14.57110026195117
TERRA                   
1 25994U 99068A   02349.28306700  .00000921  00000-0  21435-3 0  5058
2 25994  98.2071  61.4790 0000684  88.0902 272.0378 14.57117276159162
TDRS 8                  
1 26388U 00034A   02348.24331443  .00000123  00000-0  00000+0 0  5503
2 26388   5.0041 282.3654 0002877 320.0880 117.1970  1.00277608  9101
TDRS 9                  
1 27389U 02011A   02348.96903690  .00000151  00000-0  00000+0 0  1743
2 27389   8.2738 287.9360 0006598  28.9097 325.8452  1.00266105  4348
